# From MPEC 2021-F20
135P/Shoemaker-Levy,e,6.0622,213.0265,22.3083,3.802672,0.1329140,0.29520774,328.8603,08/16.0/2021,2000,g  7.0,8.0
# From MPEC 2020-W26
136P/Mueller,e,9.4244,137.4489,224.9177,4.192924,0.1147965,0.29289239,218.1997,08/16.0/2021,2000,g 11.0,4.0
# From MPEC 2021-N06
137P/Shoemaker-Levy,e,4.8541,233.0218,141.0438,4.520610,0.1025436,0.57359062,100.0985,08/16.0/2021,2000,g 11.0,4.0
# From MPEC 2016-U66
138P/Shoemaker-Levy,e,10.0908,309.3291,95.5394,3.621905,0.1429877,0.53062272,119.5448,08/16.0/2021,2000,g 15.0,6.0
# From MPEC 2020-HN5
139P/Vaisala-Oterma,e,2.3342,242.1676,165.7152,4.522059,0.1024943,0.24692175,137.8839,08/16.0/2021,2000,g  9.5,4.0
# From MPEC 2015-E14
140P/Bowell-Skiff,e,3.8355,343.2682,172.8578,6.428099,0.0604756,0.69164599,133.2262,08/16.0/2021,2000,g 11.5,6.0
# From MPEC 2021-AJ0
141P/Machholz,e,13.9451,241.8410,153.5511,3.057304,0.1843725,0.73576872,44.7489,08/16.0/2021,2000,g 14.7,4.0
# From MPC 71683
142P/Ge-Wang,e,12.2514,175.9332,173.9434,5.000398,0.0881449,0.49743147,8.4108,08/16.0/2021,2000,g  9.0,4.0
# From MPEC 2021-N06
143P/Kowal-Mrkos,e,4.6986,245.2087,320.3816,4.281473,0.1112536,0.41087801,133.3677,08/16.0/2021,2000,g 13.5,2.0
# From MPC104795
144P/Kushida,e,3.9377,243.2314,216.2916,3.820541,0.1319826,0.63593088,242.1851,08/16.0/2021,2000,g  8.5,8.0
# From MPC108598
145P/Shoemaker-Levy,e,11.2740,26.7886,10.2402,4.138238,0.1170795,0.54155886,169.1225,08/16.0/2021,2000,g 13.5,4.0
# From MPC100284
146P/Shoemaker-LINEAR,e,23.0988,53.3940,316.9523,4.031977,0.1217382,0.64710508,227.8502,08/16.0/2021,2000,g 15.0,4.0
# From MPC 75720
147P/Kushida-Muramatsu,e,2.3284,92.8894,349.4309,4.005369,0.1229533,0.22737315,256.1506,08/16.0/2021,2000,g 14.0,4.0
# From MPEC 2014-R70
148P/Anderson-LINEAR,e,3.6579,89.2282,7.9371,3.621243,0.1430268,0.54999900,316.8703,08/16.0/2021,2000,g  9.0,4.0
# From MPC 75720
149P/Mueller,e,37.0262,144.5852,35.9263,4.170930,0.1157057,0.34596961,118.3507,08/16.0/2021,2000,g  8.0,8.0
# From MPC 75720
150P/LONEOS,e,18.5057,272.3661,245.5682,3.879433,0.1289887,0.54722843,238.6695,08/16.0/2021,2000,g 13.5,4.0
# From MPEC 2015-Q71
151P/Helin,e,4.7287,143.1577,216.0517,5.763393,0.0712339,0.57357899,152.1558,08/16.0/2021,2000,g 10.0,6.0
# From MPEC 2021-P47
152P/Helin-Lawrence,e,9.8801,91.8601,163.9208,4.477564,0.1040259,0.30877825,344.3360,08/16.0/2021,2000,g 11.5,4.0
# From MPC 46101
153P/Ikeya-Zhang,e,27.8438,93.1773,35.0665,50.61413,0.0027371,0.98962634,0.0000,03/05.4609/2002,2000,g  9.0,4.0
# From MPC 87068
154P/Brewington,e,17.6330,343.0393,47.8397,4.802611,0.0936457,0.67572853,263.2660,08/16.0/2021,2000,g  2.5,12.0
# From MPEC 2021-F20
155P/Shoemaker,e,6.3965,97.1911,14.6158,6.577065,0.0584327,0.72619366,37.4039,08/16.0/2021,2000,g 13.8,4.0
# From MPEC 2021-O56
156P/Russell-LINEAR,e,17.2625,35.3614,0.4401,3.461037,0.1530717,0.61486339,41.4989,08/16.0/2021,2000,g 15.5,2.0
# From MPEC 2021-P47
157P/Tritton,e,12.4449,287.6652,154.9081,3.550599,0.1473166,0.55764164,302.6256,08/16.0/2021,2000,g 10.0,4.0
# From MPEC 2021-P47
158P/Kowal-LINEAR,e,8.0133,135.5243,172.2850,5.014851,0.0877641,0.04303054,8.3882,08/16.0/2021,2000,g  9.0,4.0
# From MPEC 2021-N06
159P/LONEOS,e,23.4671,54.9769,4.5658,5.853872,0.0695888,0.38181525,82.2543,08/16.0/2021,2000,g 10.0,4.0
# From MPEC 2021-J28
160P/LINEAR,e,15.6172,333.3589,12.7136,3.774589,0.1344001,0.52632307,83.6711,08/16.0/2021,2000,g 15.5,2.0
# From MPC 75721
161P/Hartley-IRAS,e,95.7878,1.5520,46.9558,7.724215,0.0459116,0.83483201,271.3520,08/16.0/2021,2000,g  8.5,6.0
# From MPEC 2021-N06
162P/Siding Spring,e,27.5548,30.9050,357.1468,3.091195,0.1813487,0.58296288,45.5483,08/16.0/2021,2000,g 12.0,4.0
# From MPEC 2020-HN5
163P/NEAT,e,12.7087,102.0847,349.6012,3.767327,0.1347889,0.45189319,100.0118,08/16.0/2021,2000,g 14.5,4.0
# From MPEC 2021-F20
164P/Christensen,e,16.2569,88.2879,325.8332,3.656504,0.1409629,0.54014178,165.2855,08/16.0/2021,2000,g 11.0,4.0
# From MPC 75721
165P/LINEAR,e,15.8956,0.8448,125.9989,17.87634,0.0130403,0.61500355,101.2448,08/16.0/2021,2000,g 11.5,2.0
# From MPC 75722
166P/NEAT,e,15.3704,64.4359,321.4625,13.81838,0.0191875,0.38360795,134.9002,08/16.0/2021,2000,g  5.5,4.0
# From MPC 75722
167P/CINEOS,e,19.1190,295.6659,344.5479,16.21836,0.0150902,0.27194456,111.6808,08/16.0/2021,2000,g  9.5,2.0
# From MPC102101
168P/Hergenrother,e,21.6219,355.4523,14.9987,3.582269,0.1453673,0.62097239,107.8062,08/16.0/2021,2000,g 15.5,4.0
# From MPEC 2021-N06
169P/NEAT,e,11.2987,176.1061,218.0485,2.601342,0.2349135,0.76821589,283.0162,08/16.0/2021,2000,g 16.0,2.0
# From MPEC 2021-O56
170P/Christensen,e,10.1251,142.9224,225.6366,4.199018,0.1145467,0.30381214,289.7572,08/16.0/2021,2000,g 12.0,4.0
# From MPC102102
171P/Spahr,e,21.9349,101.6943,347.0745,3.555250,0.1470276,0.50160156,139.0488,08/16.0/2021,2000,g 13.5,4.0
# From MPEC 2021-BE3
172P/Yeung,e,11.2279,30.8899,209.4120,4.213323,0.1139638,0.20536507,184.3301,08/16.0/2021,2000,g 13.0,4.0
# From MPEC 2021-J28
173P/Mueller,e,16.4943,100.4025,29.2083,5.705125,0.0723280,0.26084130,351.1071,08/16.0/2021,2000,g  7.5,4.0
# From MPC 92985
174P/Echeclus,e,4.3434,173.2150,163.1203,10.72120,0.0280763,0.45743354,64.7050,08/16.0/2021,2000,g  9.4,2.0
# From MPC114608
175P/Hergenrother,e,6.0425,123.4120,57.3727,3.458596,0.1532337,0.43526197,104.2146,08/16.0/2021,2000,g 14.0,4.0
# From MPC 89015
176P/LINEAR,e,0.2347,345.9272,34.9214,3.194633,0.1726126,0.19307707,279.8756,08/16.0/2021,2000,g 15.1,2.0
# From MPEC 2020-L06
177P/Barnard,e,31.2663,272.2214,60.2707,24.42895,0.0081629,0.95532271,44.5749,08/16.0/2021,2000,g 15.0,4.0
# From MPEC 2021-F20
178P/Hug-Bell,e,11.0885,102.8717,297.7928,3.632043,0.1423894,0.48208866,56.2918,08/16.0/2021,2000,g 14.6,4.0
# From MPC 75723
179P/Jedicke,e,19.8980,115.5187,296.8174,5.934441,0.0681764,0.30603190,340.4608,08/16.0/2021,2000,g  2.5,8.0
# From MPC100284
180P/NEAT,e,16.8656,84.5686,94.7898,3.863376,0.1297937,0.35303147,269.7083,08/16.0/2021,2000,g 11.0,4.0
# From MPC 89012
181P/Shoemaker-Levy,e,17.4857,35.4087,336.2351,3.873672,0.1292766,0.70060195,341.1569,08/16.0/2021,2000,g 11.5,4.0
# From MPEC 2014-J10
182P/LONEOS,e,16.2242,72.4804,54.1833,2.951791,0.1943460,0.66316307,307.6738,08/16.0/2021,2000,g 18.0,4.0
# From MPC110085
183P/Korlevic-Juric,e,18.8222,4.4230,166.7848,4.547705,0.1016285,0.13488487,137.2663,08/16.0/2021,2000,g 12.5,2.0
# From MPEC 2020-W26
184P/Lovas,e,4.5732,173.2501,186.4624,3.794010,0.1333695,0.55101012,39.1803,08/16.0/2021,2000,g 13.5,4.0
# From MPC109593
185P/Petriew,e,14.0079,214.1002,181.8736,3.098815,0.1806802,0.69931945,234.2321,08/16.0/2021,2000,g 15.0,4.0
# From MPEC 2020-W26
186P/Garradd,e,28.8688,326.6389,275.8101,4.921868,0.0902629,0.12154824,81.6689,08/16.0/2021,2000,g  7.5,4.0
# From MPEC 2020-SI8
187P/LINEAR,e,13.6342,109.9164,131.8082,4.569087,0.1009160,0.15206949,120.0004,08/16.0/2021,2000,g  9.0,4.0
# From MPC106349
188P/LINEAR-Mueller,e,10.5251,358.9635,26.5625,4.373799,0.1077496,0.41598651,176.7040,08/16.0/2021,2000,g 11.5,4.0
# From MPC106349
189P/NEAT,e,20.0694,281.7293,16.2960,2.946427,0.1948770,0.58875601,286.3743,08/16.0/2021,2000,g 19.0,4.0
# From MPEC 2020-K19
190P/Mueller,e,2.1743,335.5796,50.2812,4.233748,0.1131401,0.52152376,221.2432,08/16.0/2021,2000,g 13.0,4.0
# From MPEC 2021-BE3
191P/McNaught,e,8.8427,98.2325,284.0169,3.634386,0.1422517,0.38580839,21.1759,08/16.0/2021,2000,g 13.0,4.0
# From MPC 75724
192P/Shoemaker-Levy,e,24.5616,51.6190,312.9735,6.475739,0.0598095,0.77328158,299.4478,08/16.0/2021,2000,g 15.0,4.0
# From MPEC 2021-P47
193P/LINEAR-NEAT,e,10.6885,335.1745,8.1087,3.579424,0.1455407,0.39430205,358.6480,08/16.0/2021,2000,g 14.0,4.0
# From MPC 98566
194P/LINEAR,e,11.5796,350.3555,131.5017,3.989306,0.1236967,0.58386387,248.6406,08/16.0/2021,2000,g 16.0,4.0
# From MPC 75724
195P/Hill,e,36.3340,243.1216,249.2981,6.503706,0.0594241,0.31340620,274.2991,08/16.0/2021,2000,g  8.5,4.0
# From MPC 92985
196P/Tichy,e,19.2926,24.1585,12.1975,3.802649,0.1329152,0.42855686,301.5434,08/16.0/2021,2000,g 13.5,4.0
# From MPC 94676
197P/LINEAR,e,25.5333,66.3810,188.7500,2.867750,0.2029514,0.62955600,262.8546,08/16.0/2021,2000,g 16.5,2.0
# From NK 1596
198P/ODAS,e,1.3387,358.2549,69.1853,3.598539,0.1443826,0.44346040,140.9447,08/16.0/2021,2000,g  9.0,4.0
# From MPC 75725
199P/Shoemaker,e,24.9320,92.3779,191.6822,5.892595,0.0689040,0.50598504,310.2553,08/16.0/2021,2000,g 10.0,4.0
# From MPEC 2021-F20
200P/Larsen,e,12.0999,234.7870,134.1082,4.941582,0.0897233,0.33261081,67.1796,08/16.0/2021,2000,g  9.0,4.0
# From MPC 93588
201P/LONEOS,e,5.7390,19.7481,41.5448,3.353805,0.1604713,0.63701818,13.0503,08/16.0/2021,2000,g 14.0,4.0
# From MPEC 2021-N06
202P/Scotti,e,2.0848,178.0349,277.2462,4.060970,0.1204369,0.26601896,238.1684,08/16.0/2021,2000,g 13.5,4.0
# From MPEC 2021-F20
203P/Korlevic,e,2.9729,290.3418,154.8018,4.670834,0.0976366,0.31517710,51.6790,08/16.0/2021,2000,g 12.7,4.0
# From MPC 98566
204P/LINEAR-NEAT,e,6.6006,108.5921,356.2984,3.591400,0.1448133,0.48821330,293.7684,08/16.0/2021,2000,g 14.0,4.0
# From MPC 98566
205P/Giacobini,e,15.3045,179.6052,154.2098,3.542510,0.1478215,0.56807690,337.7632,08/16.0/2021,2000,g 13.0,4.0
# From MPC 75725
206P/Barnard-Boattini,e,33.6332,202.3446,189.4774,3.487797,0.1513134,0.55135771,24.8903,08/16.0/2021,2000,g 19.0,4.0
# From MPC 75725
207P/NEAT,e,10.1842,198.3814,272.9718,3.870899,0.1294155,0.75924252,243.6674,08/16.0/2021,2000,g 16.0,4.0
# From MPEC 2020-W26
208P/McMillan,e,4.4110,36.3442,310.4647,4.045110,0.1211458,0.37390908,226.3403,08/16.0/2021,2000,g 12.5,4.0
# From MPC 90771
209P/LINEAR,e,21.2561,62.7730,152.4634,2.959966,0.1935414,0.67305320,153.9618,08/16.0/2021,2000,g 17.0,2.0
# From MPC105242
210P/Christensen,e,10.2630,93.8298,345.8957,3.164169,0.1751114,0.83321815,86.6995,08/16.0/2021,2000,g 13.5,4.0
# From MPC 96868
211P/Hill,e,18.9212,117.1331,4.2598,3.546024,0.1476018,0.34342764,298.8048,08/16.0/2021,2000,g 12.5,4.0
# From MPEC 2021-F20
